[{"OBJECT_NAME":"TANSTAAFL-2","OBJECT_ID":"2024-247B","EPOCH":"2026-03-08T04:58:51.015360","MEAN_MOTION":15.28016845,"ECCENTRICITY":0.00030723,"INCLINATION":44.988,"RA_OF_ASC_NODE":125.0934,"ARG_OF_PERICENTER":298.8909,"MEAN_ANOMALY":61.1666,"EPHEMERIS_TYPE":0,"CLASSIFICATION_TYPE":"U","NORAD_CAT_ID":62378,"ELEMENT_SET_NO":999,"REV_AT_EPOCH":6750,"BSTAR":0.00050871624,"MEAN_MOTION_DOT":0.00013897,"MEAN_MOTION_DDOT":0},{"OBJECT_NAME":"STARLINK-33933","OBJECT_ID":"2025-091K","EPOCH":"2026-03-09T23:04:51.703392","MEAN_MOTION":15.2757664,"ECCENTRICITY":7.156e-5,"INCLINATION":43,"RA_OF_ASC_NODE":44.0494,"ARG_OF_PERICENTER":244.8577,"MEAN_ANOMALY":115.22,"EPHEMERIS_TYPE":0,"CLASSIFICATION_TYPE":"U","NORAD_CAT_ID":63784,"ELEMENT_SET_NO":999,"REV_AT_EPOCH":4913,"BSTAR":0.00038943393,"MEAN_MOTION_DOT":0.00010469,"MEAN_MOTION_DDOT":0}]
